NORAD_CAT_ID,OBJECT_NAME,OBJECT_TYPE,EPOCH,MEAN_MOTION,ECCENTRICITY,INCLINATION,RA_OF_ASC_NODE,ARG_OF_PERICENTER,MEAN_ANOMALY,BSTAR,MEAN_MOTION_DOT,MEAN_MOTION_DDOT,TLE_LINE0,TLE_LINE1,TLE_LINE2,SEMIMAJOR_AXIS,PERIOD,APOGEE,PERIGEE,DECAYED
51805.0,STARLINK-3605,PAYLOAD,2023-11-28 12:25:26,15.0884125,0.0001436,53.2178,104.9603,94.2385,265.8771,2.1005e-05,4.6e-07,0.0,0 STARLINK-3605,1 51805U 22017AP  23332.51767066  .00000046  00000-0  21005-4 0  9994,2 51805  53.2178 104.9603 0001436  94.2385 265.8771 15.08841250 98619,6917.877,95.437,540.735,538.748,0.0
51805.0,STARLINK-3605,PAYLOAD,2023-11-28 14:00:49,15.08842554,0.0001511,53.2172,104.6638,75.2858,284.8302,6.9106e-05,8.12e-06,0.0,0 STARLINK-3605,1 51805U 22017AP  23332.58391128  .00000812  00000-0  69106-4 0  9998,2 51805  53.2172 104.6638 0001511  75.2858 284.8302 15.08842554 98626,6917.873,95.437,540.783,538.692,0.0
51805.0,STARLINK-3605,PAYLOAD,2023-11-28 18:46:59,15.08849176,0.000149,53.2172,103.7702,83.2113,276.9048,0.00019309,2.787e-05,0.0,0 STARLINK-3605,1 51805U 22017AP  23332.78262789  .00002787  00000-0  19309-3 0  9992,2 51805  53.2172 103.7702 0001490  83.2113 276.9048 15.08849176 98656,6917.852,95.437,540.748,538.687,0.0
51805.0,STARLINK-3605,PAYLOAD,2023-11-29 12:16:13,15.08840662,0.0001584,53.2175,100.495,110.7243,249.3919,0.00014263,1.983e-05,0.0,0 STARLINK-3605,1 51805U 22017AP  23333.51127228  .00001983  00000-0  14263-3 0  9993,2 51805  53.2175 100.4950 0001584 110.7243 249.3919 15.08840662 98766,6917.878,95.438,540.839,538.648,0.0
51805.0,STARLINK-3605,PAYLOAD,2023-11-29 13:51:37,15.08840766,0.0001658,53.2177,100.1976,108.9743,251.1429,0.00016584,2.352e-05,0.0,0 STARLINK-3605,1 51805U 22017AP  23333.57751263  .00002352  00000-0  16584-3 0  9990,2 51805  53.2177 100.1976 0001658 108.9743 251.1429 15.08840766 98772,6917.878,95.438,540.89,538.596,0.0
51805.0,STARLINK-3605,PAYLOAD,2023-11-30 13:42:24,15.08840262,0.0001784,53.2179,95.7385,112.9051,247.213,2.2292e-06,-2.53e-06,0.0,0 STARLINK-3605,1 51805U 22017AP  23334.57111429 -.00000253  00000-0  22292-5 0  9999,2 51805  53.2179  95.7385 0001784 112.9051 247.2130 15.08840262 98927,6917.88,95.438,540.979,538.51,0.0
51805.0,STARLINK-3605,PAYLOAD,2023-12-01 11:57:48,15.08836137,0.0001659,53.2189,91.5796,103.1431,256.9746,8.3563e-05,1.042e-05,0.0,0 STARLINK-3605,1 51805U 22017AP  23335.49848108  .00001042  00000-0  83563-4 0  9995,2 51805  53.2189  91.5796 0001659 103.1431 256.9746 15.08836137 99065,6917.892,95.438,540.905,538.61,0.0
51805.0,STARLINK-3605,PAYLOAD,2023-12-01 13:33:11,15.08831377,0.000161,53.2182,91.2812,105.4589,254.6581,0.00018064,2.587e-05,0.0,0 STARLINK-3605,1 51805U 22017AP  23335.56472116  .00002587  00000-0  18064-3 0  9993,2 51805  53.2182  91.2812 0001610 105.4589 254.6581 15.08831377 99074,6917.907,95.438,540.886,538.658,0.0
51805.0,STARLINK-3605,PAYLOAD,2023-12-02 11:48:34,15.08848417,0.0002146,53.2161,87.1089,146.159,213.954,0.00015702,2.212e-05,0.0,0 STARLINK-3605,1 51805U 22017AP  23336.49206892  .00002212  00000-0  15702-3 0  9993,2 51805  53.2161  87.1089 0002146 146.1590 213.9540 15.08848417 99212,6917.855,95.437,541.204,538.235,0.0
51805.0,STARLINK-3605,PAYLOAD,2023-12-02 13:23:59,15.08815867,0.0001516,53.2176,86.8274,108.4588,251.6569,-0.00031258,-5.256e-05,0.0,0 STARLINK-3605,1 51805U 22017AP  23336.55832517 -.00005256  00000-0 -31258-3 0  9996,2 51805  53.2176  86.8274 0001516 108.4588 251.6569 15.08815867 99222,6917.954,95.439,540.868,538.77,0.0
51805.0,STARLINK-3605,PAYLOAD,2023-12-02 14:59:22,15.08812558,0.0001344,53.2177,86.5321,85.0649,275.0496,-0.00033215,-5.566e-05,0.0,0 STARLINK-3605,1 51805U 22017AP  23336.62457040 -.00005566  00000-0 -33215-3 0  9997,2 51805  53.2177  86.5321 0001344  85.0649 275.0496 15.08812558 99234,6917.964,95.439,540.759,538.899,0.0
51805.0,STARLINK-3605,PAYLOAD,2023-12-03 11:39:24,15.08819533,0.0001143,53.2168,82.6591,99.1103,261.0018,-0.0002549,-4.34e-05,0.0,0 STARLINK-3605,1 51805U 22017AP  23337.48569866 -.00004340  00000-0 -25490-3 0  9997,2 51805  53.2168  82.6591 0001143  99.1103 261.0018 15.08819533 99367,6917.943,95.439,540.599,539.017,0.0
51805.0,STARLINK-3605,PAYLOAD,2023-12-03 13:14:47,15.08824839,0.0001388,53.2164,82.365,91.8746,268.2405,-0.00028956,-4.891e-05,0.0,0 STARLINK-3605,1 51805U 22017AP  23337.55193898 -.00004891  00000-0 -28956-3 0  9994,2 51805  53.2164  82.3650 0001388  91.8746 268.2405 15.08824839 99374,6917.927,95.439,540.752,538.832,0.0
51805.0,STARLINK-3605,PAYLOAD,2023-12-03 16:25:33,15.08829359,0.0001469,53.2169,81.7676,107.1189,252.9964,-0.00016095,-2.848e-05,0.0,0 STARLINK-3605,1 51805U 22017AP  23337.68441715 -.00002848  00000-0 -16095-3 0  9993,2 51805  53.2169  81.7676 0001469 107.1189 252.9964 15.08829359 99396,6917.913,95.438,540.794,538.762,0.0
51805.0,STARLINK-3605,PAYLOAD,2023-12-04 11:30:10,15.08846285,0.0001546,53.2164,78.2032,50.5474,309.5654,0.00055684,8.587e-05,0.0,0 STARLINK-3605,1 51805U 22017AP  23338.47929152  .00008587  00000-0  55684-3 0  9998,2 51805  53.2164  78.2032 0001546  50.5474 309.5654 15.08846285 99518,6917.861,95.437,540.796,538.657,0.0
51805.0,STARLINK-3605,PAYLOAD,2023-12-04 13:05:33,15.0885336,0.0001384,53.2166,77.9042,65.7114,294.4022,0.00064963,0.0001007,0.0,0 STARLINK-3605,1 51805U 22017AP  23338.54552745  .00010070  00000-0  64963-3 0  9996,2 51805  53.2166  77.9042 0001384  65.7114 294.4022 15.08853360 99520,6917.84,95.437,540.662,538.747,0.0
51805.0,STARLINK-3605,PAYLOAD,2023-12-05 11:20:57,15.08845396,0.0001641,53.2189,73.7391,85.4404,274.6775,0.00025676,3.801e-05,0.0,0 STARLINK-3605,1 51805U 22017AP  23339.47288647  .00003801  00000-0  25676-3 0  9998,2 51805  53.2189  73.7391 0001641  85.4404 274.6775 15.08845396 99663,6917.864,95.437,540.864,538.594,0.0
51805.0,STARLINK-3605,PAYLOAD,2023-12-05 12:56:20,15.08848081,0.0001423,53.2184,73.4409,92.4737,267.6418,0.00022017,3.219e-05,0.0,0 STARLINK-3605,1 51805U 22017AP  23339.53912465  .00003219  00000-0  22017-3 0  9996,2 51805  53.2184  73.4409 0001423  92.4737 267.6418 15.08848081 99671,6917.856,95.437,540.705,538.736,0.0
51805.0,STARLINK-3605,PAYLOAD,2023-12-06 12:47:07,15.0885043,0.0001422,53.217,68.981,93.3844,266.7311,-0.00013255,-2.397e-05,0.0,0 STARLINK-3605,1 51805U 22017AP  23340.53272386 -.00002397  00000-0 -13255-3 0  9991,2 51805  53.2170  68.9810 0001422  93.3844 266.7311 15.08850430 99829,6917.849,95.437,540.697,538.73,0.0
51805.0,STARLINK-3605,PAYLOAD,2023-12-07 11:02:31,15.08835509,0.000166,53.2185,64.82,106.7036,253.4138,-1.3711e-05,-5.06e-06,0.0,0 STARLINK-3605,1 51805U 22017AP  23341.46008698 -.00000506  00000-0 -13711-4 0  9995,2 51805  53.2185  64.8200 0001660 106.7036 253.4138 15.08835509 99964,6917.894,95.438,540.907,538.611,0.0
51805.0,STARLINK-3605,PAYLOAD,2023-12-07 14:13:17,15.08839727,0.0001779,53.2187,64.2254,103.9782,256.1408,-6.0075e-05,-1.244e-05,0.0,0 STARLINK-3605,1 51805U 22017AP  23341.59256636 -.00001244  00000-0 -60075-4 0  9991,2 51805  53.2187  64.2254 0001779 103.9782 256.1408 15.08839727 99985,6917.881,95.438,540.977,538.516,0.0
51805.0,STARLINK-3605,PAYLOAD,2023-12-08 14:04:04,15.08837517,0.000153,53.2184,59.7625,108.9499,251.1659,4.0888e-05,3.63e-06,0.0,0 STARLINK-3605,1 51805U 22017AP  23342.58616627  .00000363  00000-0  40888-4 0  9990,2 51805  53.2184  59.7625 0001530 108.9499 251.1659 15.08837517100136,6917.888,95.438,540.811,538.695,0.0
51805.0,STARLINK-3605,PAYLOAD,2023-12-08 15:39:27,15.08838329,0.0001541,53.2182,59.4648,109.305,250.8109,4.7176e-05,4.63e-06,0.0,0 STARLINK-3605,1 51805U 22017AP  23342.65240556  .00000463  00000-0  47176-4 0  9990,2 51805  53.2182  59.4648 0001541 109.3050 250.8109 15.08838329100145,6917.885,95.438,540.817,538.684,0.0
51805.0,STARLINK-3605,PAYLOAD,2023-12-09 12:19:29,15.08835731,0.0001299,53.2179,55.5997,98.7389,261.3751,3.174e-05,2.17e-06,0.0,0 STARLINK-3605,1 51805U 22017AP  23343.51353056  .00000217  00000-0  31740-4 0  9993,2 51805  53.2179  55.5997 0001299  98.7389 261.3751 15.08835731100279,6917.893,95.438,540.657,538.86,0.0
51805.0,STARLINK-3605,PAYLOAD,2023-12-10 04:13:20,15.08833769,0.0001377,53.2173,52.6274,83.6778,276.4371,3.2739e-05,2.33e-06,0.0,0 STARLINK-3605,1 51805U 22017AP  23344.17593443  .00000233  00000-0  32739-4 0  9999,2 51805  53.2173  52.6274 0001377  83.6778 276.4371 15.08833769100376,6917.899,95.438,540.717,538.812,0.0
51805.0,STARLINK-3605,PAYLOAD,2023-12-10 12:10:16,15.08837623,0.0001412,53.2171,51.1408,83.1887,276.9266,2.2515e-05,7e-07,0.0,0 STARLINK-3605,1 51805U 22017AP  23344.50713348  .00000070  00000-0  22515-4 0  9994,2 51805  53.2171  51.1408 0001412  83.1887 276.9266 15.08837623100420,6917.888,95.438,540.729,538.776,0.0
51805.0,STARLINK-3605,PAYLOAD,2023-12-11 12:01:02,15.08843222,0.0001485,53.2184,46.6816,74.4361,285.6795,8.1828e-05,1.015e-05,0.0,0 STARLINK-3605,1 51805U 22017AP  23345.50072861  .00001015  00000-0  81828-4 0  9995,2 51805  53.2184  46.6816 0001485  74.4361 285.6795 15.08843222100578,6917.871,95.437,540.763,538.708,0.0
51805.0,STARLINK-3605,PAYLOAD,2023-12-12 10:16:27,15.0884098,0.0001738,53.219,42.5176,66.1016,294.0158,2.792e-05,1.56e-06,0.0,0 STARLINK-3605,1 51805U 22017AP  23346.42809245  .00000156  00000-0  27920-4 0  9999,2 51805  53.2190  42.5176 0001738  66.1016 294.0158 15.08840980100716,6917.877,95.437,540.945,538.54,0.0
51805.0,STARLINK-3605,PAYLOAD,2023-12-13 10:07:16,15.08823189,0.0001386,53.2175,38.063,92.5434,267.5717,-0.00013036,-2.361e-05,0.0,0 STARLINK-3605,1 51805U 22017AP  23347.42171494 -.00002361  00000-0 -13036-3 0  9992,2 51805  53.2175  38.0630 0001386  92.5434 267.5717 15.08823189100864,6917.932,95.439,540.756,538.838,0.0
51805.0,STARLINK-3605,PAYLOAD,2023-12-14 08:22:39,15.08838351,0.0001551,53.22,33.891,70.7449,289.3711,4.0919e-05,3.63e-06,0.0,0 STARLINK-3605,1 51805U 22017AP  23348.34906293  .00000363  00000-0  40919-4 0  9996,2 51805  53.2200  33.8910 0001551  70.7449 289.3711 15.08838351101005,6917.885,95.438,540.823,538.677,0.0
